NORAD_CAT_ID,OBJECT_NAME,OBJECT_TYPE,EPOCH,MEAN_MOTION,ECCENTRICITY,INCLINATION,RA_OF_ASC_NODE,ARG_OF_PERICENTER,MEAN_ANOMALY,BSTAR,MEAN_MOTION_DOT,MEAN_MOTION_DDOT,TLE_LINE0,TLE_LINE1,TLE_LINE2,SEMIMAJOR_AXIS,PERIOD,APOGEE,PERIGEE,DECAYED
53286.0,STARLINK-4165,PAYLOAD,2024-05-25 05:52:34,15.08840951,0.0001545,53.2139,237.2368,98.5708,261.546,4.4596e-05,4.22e-06,0.0,0 STARLINK-4165,1 53286U 22086AW  24146.24484934  .00000422  00000-0  44596-4 0  9997,2 53286  53.2139 237.2368 0001545  98.5708 261.5460 15.08840951102381,6917.877,95.437,540.811,538.674,0.0
53286.0,STARLINK-4165,PAYLOAD,2024-05-25 13:49:30,15.0884699,0.0001477,53.2155,235.752,93.7698,266.3463,0.00013038,1.788e-05,0.0,0 STARLINK-4165,1 53286U 22086AW  24146.57604739  .00001788  00000-0  13038-3 0  9992,2 53286  53.2155 235.7520 0001477  93.7698 266.3463 15.08846990102599,6917.859,95.437,540.746,538.702,0.0
53286.0,STARLINK-4165,PAYLOAD,2024-05-26 12:04:54,15.08843203,0.0001416,53.2158,231.59,76.7147,283.4002,9.596e-05,1.24e-05,0.0,0 STARLINK-4165,1 53286U 22086AW  24147.50340926  .00001240  00000-0  95960-4 0  9999,2 53286  53.2158 231.5900 0001416  76.7147 283.4002 15.08843203102572,6917.871,95.437,540.715,538.756,0.0
53286.0,STARLINK-4165,PAYLOAD,2024-05-27 11:55:41,15.08842465,0.0001488,53.2165,227.1298,94.4875,265.6288,4.443e-05,4.19e-06,0.0,0 STARLINK-4165,1 53286U 22086AW  24148.49700805  .00000419  00000-0  44430-4 0  9997,2 53286  53.2165 227.1298 0001488  94.4875 265.6288 15.08842465102886,6917.873,95.437,540.767,538.708,0.0
53286.0,STARLINK-4165,PAYLOAD,2024-05-27 15:06:27,15.08843475,0.0001431,53.2172,226.5328,102.0338,258.0815,9.7981e-05,1.272e-05,0.0,0 STARLINK-4165,1 53286U 22086AW  24148.62948614  .00001272  00000-0  97981-4 0  9991,2 53286  53.2172 226.5328 0001431 102.0338 258.0815 15.08843475102748,6917.87,95.437,540.725,538.745,0.0
53286.0,STARLINK-4165,PAYLOAD,2024-05-28 05:24:56,15.08838158,0.0001239,53.2161,223.8562,90.4867,269.6267,5.5464e-05,5.95e-06,0.0,0 STARLINK-4165,1 53286U 22086AW  24149.22564962  .00000595  00000-0  55464-4 0  9995,2 53286  53.2161 223.8562 0001239  90.4867 269.6267 15.08838158102830,6917.886,95.438,540.608,538.894,0.0
53286.0,STARLINK-4165,PAYLOAD,2024-05-28 13:21:51,15.08844098,0.0001195,53.2162,222.3695,85.8027,274.3101,8.3711e-05,1.045e-05,0.0,0 STARLINK-4165,1 53286U 22086AW  24149.55684391  .00001045  00000-0  83711-4 0  9997,2 53286  53.2162 222.3695 0001195  85.8027 274.3101 15.08844098103043,6917.868,95.437,540.56,538.906,0.0
53286.0,STARLINK-4165,PAYLOAD,2024-05-28 16:32:37,15.08846862,0.0001194,53.2162,221.7746,85.9472,274.1657,0.00010204,1.337e-05,0.0,0 STARLINK-4165,1 53286U 22086AW  24149.68932111  .00001337  00000-0  10204-3 0  9997,2 53286  53.2162 221.7746 0001194  85.9472 274.1657 15.08846862102906,6917.859,95.437,540.55,538.898,0.0
53286.0,STARLINK-4165,PAYLOAD,2024-05-29 05:15:43,15.0883359,0.0001247,53.2162,219.3958,90.6864,269.4271,-1.2894e-05,-4.93e-06,0.0,0 STARLINK-4165,1 53286U 22086AW  24150.21925453 -.00000493  00000-0 -12894-4 0  9991,2 53286  53.2162 219.3958 0001247  90.6864 269.4271 15.08833590102982,6917.9,95.438,540.628,538.902,0.0
53286.0,STARLINK-4165,PAYLOAD,2024-05-29 13:12:38,15.08841756,0.0001197,53.2162,217.9093,87.3531,272.7599,2.9519e-05,1.82e-06,0.0,0 STARLINK-4165,1 53286U 22086AW  24150.55044922  .00000182  00000-0  29519-4 0  9996,2 53286  53.2162 217.9093 0001197  87.3531 272.7599 15.08841756103034,6917.875,95.437,540.568,538.912,0.0
53286.0,STARLINK-4165,PAYLOAD,2024-05-29 16:23:24,15.08842586,0.0001197,53.2161,217.3144,87.847,272.2659,7.3367e-05,8.8e-06,0.0,0 STARLINK-4165,1 53286U 22086AW  24150.68292784  .00000880  00000-0  73367-4 0  9996,2 53286  53.2161 217.3144 0001197  87.8470 272.2659 15.08842586103215,6917.872,95.437,540.566,538.909,0.0
53286.0,STARLINK-4165,PAYLOAD,2024-05-30 13:03:25,15.08848891,0.0001224,53.2161,213.4487,89.7421,270.3712,0.00017681,2.528e-05,0.0,0 STARLINK-4165,1 53286U 22086AW  24151.54404381  .00002528  00000-0  17681-3 0  9997,2 53286  53.2161 213.4487 0001224  89.7421 270.3712 15.08848891103348,6917.853,95.437,540.565,538.871,0.0
53286.0,STARLINK-4165,PAYLOAD,2024-05-30 16:14:11,15.08855563,0.0001224,53.2161,212.854,90.9507,269.1626,0.00018941,2.729e-05,0.0,0 STARLINK-4165,1 53286U 22086AW  24151.67651874  .00002729  00000-0  18941-3 0  9995,2 53286  53.2161 212.8540 0001224  90.9507 269.1626 15.08855563103209,6917.833,95.437,540.545,538.851,0.0
53286.0,STARLINK-4165,PAYLOAD,2024-05-30 22:35:43,15.08857632,0.0001175,53.216,211.6645,91.2752,268.8375,0.00017134,2.441e-05,0.0,0 STARLINK-4165,1 53286U 22086AW  24151.94147634  .00002441  00000-0  17134-3 0  9993,2 53286  53.2160 211.6645 0001175  91.2752 268.8375 15.08857632103400,6917.826,95.436,540.504,538.879,0.0
53286.0,STARLINK-4165,PAYLOAD,2024-05-31 04:57:17,15.08836227,0.0001261,53.2151,210.475,90.0626,270.0511,9.8664e-05,1.283e-05,0.0,0 STARLINK-4165,1 53286U 22086AW  24152.20645071  .00001283  00000-0  98664-4 0  9992,2 53286  53.2151 210.4750 0001261  90.0626 270.0511 15.08836227103287,6917.892,95.438,540.629,538.885,0.0
53286.0,STARLINK-4165,PAYLOAD,2024-05-31 12:54:12,15.08844596,0.000126,53.2151,208.9883,85.978,274.1356,0.0001561,2.198e-05,0.0,0 STARLINK-4165,1 53286U 22086AW  24152.53764691  .00002198  00000-0  15610-3 0  9993,2 53286  53.2151 208.9883 0001260  85.9780 274.1356 15.08844596103492,6917.866,95.437,540.603,538.86,0.0
53286.0,STARLINK-4165,PAYLOAD,2024-05-31 22:26:31,15.0883753,0.0001252,53.2152,207.2045,83.2733,276.8401,-7.0901e-05,-1.416e-05,0.0,0 STARLINK-4165,1 53286U 22086AW  24152.93509062 -.00001416  00000-0 -70901-4 0  9995,2 53286  53.2152 207.2045 0001252  83.2733 276.8401 15.08837530103552,6917.888,95.438,540.619,538.887,0.0
53286.0,STARLINK-4165,PAYLOAD,2024-06-01 04:48:04,15.08829867,0.0001308,53.2151,206.0148,84.4953,275.6188,-4.9567e-05,-1.076e-05,0.0,0 STARLINK-4165,1 53286U 22086AW  24153.20005671 -.00001076  00000-0 -49567-4 0  9999,2 53286  53.2151 206.0148 0001308  84.4953 275.6188 15.08829867103431,6917.911,95.438,540.681,538.871,0.0
53286.0,STARLINK-4165,PAYLOAD,2024-06-01 12:45:00,15.08837111,0.0001264,53.2159,204.528,85.8417,274.272,2.7987e-05,1.58e-06,0.0,0 STARLINK-4165,1 53286U 22086AW  24153.53125751  .00000158  00000-0  27987-4 0  9997,2 53286  53.2159 204.5280 0001264  85.8417 274.2720 15.08837111103641,6917.889,95.438,540.629,538.88,0.0
53286.0,STARLINK-4165,PAYLOAD,2024-06-01 20:41:55,15.08843817,0.0001252,53.2158,203.0412,86.1195,273.994,3.2354e-05,2.27e-06,0.0,0 STARLINK-4165,1 53286U 22086AW  24153.86245301  .00000227  00000-0  32354-4 0  9998,2 53286  53.2158 203.0412 0001252  86.1195 273.9940 15.08843817103533,6917.869,95.437,540.6,538.868,0.0
53286.0,STARLINK-4165,PAYLOAD,2024-06-02 09:25:01,15.0884514,0.0001318,53.215,200.6622,80.5959,279.5182,0.00026484,3.93e-05,0.0,0 STARLINK-4165,1 53286U 22086AW  24154.39237321  .00003930  00000-0  26484-3 0  9990,2 53286  53.2150 200.6622 0001318  80.5959 279.5182 15.08845140103777,6917.865,95.437,540.641,538.818,0.0
53286.0,STARLINK-4165,PAYLOAD,2024-06-02 20:32:42,15.08847083,0.0001318,53.215,198.5806,80.8467,279.2674,0.00021976,3.212e-05,0.0,0 STARLINK-4165,1 53286U 22086AW  24154.85605246  .00003212  00000-0  21976-3 0  9990,2 53286  53.2150 198.5806 0001318  80.8467 279.2674 15.08847083103842,6917.859,95.437,540.636,538.812,0.0
53286.0,STARLINK-4165,PAYLOAD,2024-06-03 02:54:15,15.08842177,0.0001354,53.2149,197.3912,83.3479,276.7667,0.00029928,4.479e-05,0.0,0 STARLINK-4165,1 53286U 22086AW  24155.12101647  .00004479  00000-0  29928-3 0  9998,2 53286  53.2149 197.3912 0001354  83.3479 276.7667 15.08842177103726,6917.874,95.437,540.675,538.802,0.0
53286.0,STARLINK-4165,PAYLOAD,2024-06-03 09:15:48,15.08847855,0.0001363,53.2147,196.2017,84.2868,275.8279,0.00029865,4.469e-05,0.0,0 STARLINK-4165,1 53286U 22086AW  24155.38597372  .00004469  00000-0  29865-3 0  9999,2 53286  53.2147 196.2017 0001363  84.2868 275.8279 15.08847855103929,6917.856,95.437,540.664,538.778,0.0
53286.0,STARLINK-4165,PAYLOAD,2024-06-04 02:45:02,15.08840064,0.0001344,53.2143,192.9297,87.6259,272.4887,4.3387e-05,4.03e-06,0.0,0 STARLINK-4165,1 53286U 22086AW  24156.11461579  .00000403  00000-0  43387-4 0  9990,2 53286  53.2143 192.9297 0001344  87.6259 272.4887 15.08840064103875,6917.88,95.438,540.675,538.815,0.0
53286.0,STARLINK-4165,PAYLOAD,2024-06-04 09:06:35,15.08841292,0.0001343,53.2142,191.7397,91.0154,269.0992,2.4682e-05,1.05e-06,0.0,0 STARLINK-4165,1 53286U 22086AW  24156.37957537  .00000105  00000-0  24682-4 0  9998,2 53286  53.2142 191.7397 0001343  91.0154 269.0992 15.08841292104070,6917.876,95.437,540.671,538.812,0.0
53286.0,STARLINK-4165,PAYLOAD,2024-06-05 08:57:21,15.08847529,0.000132,53.2156,187.2804,93.246,266.8683,0.00012633,1.724e-05,0.0,0 STARLINK-4165,1 53286U 22086AW  24157.37316861  .00001724  00000-0  12633-3 0  9998,2 53286  53.2156 187.2804 0001320  93.2460 266.8683 15.08847529104067,6917.857,95.437,540.636,538.809,0.0
53286.0,STARLINK-4165,PAYLOAD,2024-06-05 18:29:40,15.08845372,0.0001324,53.2157,185.4959,89.6245,270.4899,8.7598e-05,1.107e-05,0.0,0 STARLINK-4165,1 53286U 22086AW  24157.77061073  .00001107  00000-0  87598-4 0  9992,2 53286  53.2157 185.4959 0001324  89.6245 270.4899 15.08845372104281,6917.864,95.437,540.645,538.813,0.0
53286.0,STARLINK-4165,PAYLOAD,2024-06-06 05:37:23,15.08833181,0.000117,53.2156,183.4129,77.1871,282.9252,4.6053e-05,4.45e-06,0.0,0 STARLINK-4165,1 53286U 22086AW  24158.23430094  .00000445  00000-0  46053-4 0  9992,2 53286  53.2156 183.4129 0001170  77.1871 282.9252 15.08833181104199,6917.901,95.438,540.576,538.957,0.0
53286.0,STARLINK-4165,PAYLOAD,2024-06-06 08:48:09,15.08835091,0.0001392,53.215,182.8212,93.6403,266.4748,9.4066e-06,-1.38e-06,0.0,0 STARLINK-4165,1 53286U 22086AW  24158.36677696 -.00000138  00000-0  94066-5 0  9995,2 53286  53.2150 182.8212 0001392  93.6403 266.4748 15.08835091104378,6917.895,95.438,540.723,538.797,0.0
